OBJECT_NAME,OBJECT_ID,EPOCH,MEAN_MOTION,ECCENTRICITY,INCLINATION,RA_OF_ASC_NODE,ARG_OF_PERICENTER,MEAN_ANOMALY,EPHEMERIS_TYPE,CLASSIFICATION_TYPE,NORAD_CAT_ID,ELEMENT_SET_NO,REV_AT_EPOCH,BSTAR,MEAN_MOTION_DOT,MEAN_MOTION_DDOT
STARLINK-31599,2024-057H,2026-07-05T04:51:21.159936,15.27584502,.00016898,43.0048,243.2103,277.4760,82.5900,0,U,59327,999,12781,.25493035E-4,.439E-5,0
STARLINK-31614,2024-057J,2026-07-05T03:52:21.116064,15.27591915,.00010833,43.0009,243.7654,279.5529,80.5200,0,U,59328,999,12780,.96335572E-4,.2391E-4,0
STARLINK-31493,2024-057K,2026-07-05T05:02:27.165696,15.27606950,.00012323,43.0010,243.2670,289.7311,70.3408,0,U,59329,999,12781,-.36979984E-4,-.128E-4,0
STARLINK-31634,2024-057L,2026-07-05T04:05:18.134592,15.27592394,.00012548,42.9992,243.8244,284.4464,75.6248,0,U,59330,999,12780,.65324315E-4,.1537E-4,0
STARLINK-31633,2024-057M,2026-07-05T11:52:22.474848,15.27602095,.00013815,43.0012,241.9596,273.5507,86.5186,0,U,59331,999,12785,.10846378E-3,.2726E-4,0
STARLINK-31594,2024-057N,2026-07-05T13:11:46.053312,15.27548471,.00014122,43.0016,252.7575,291.0284,69.0416,0,U,59332,999,12773,-.59678003E-4,-.1902E-4,0
STARLINK-31572,2024-057P,2026-07-05T05:24:37.212480,15.27601574,.00005253,42.9999,254.6239,274.3864,85.6928,0,U,59333,999,12768,.15995667E-4,.179E-5,0
STARLINK-31573,2024-057Q,2026-07-05T04:29:08.710368,15.27589582,.00011511,42.9996,243.0859,275.1417,84.9303,0,U,59334,999,12781,.73615495E-4,.1765E-4,0
STARLINK-31588,2024-057R,2026-07-05T12:29:10.273920,15.27595500,.00009677,42.9989,241.2907,275.9918,84.0823,0,U,59335,999,12786,.35939908E-4,.728E-5,0
STARLINK-31596,2024-057S,2026-07-05T04:43:56.932608,15.27587557,.00009034,43.0018,243.1668,269.5500,90.5248,0,U,59336,999,12781,.62731402E-4,.1465E-4,0
STARLINK-31612,2024-057T,2026-07-05T05:17:16.409184,15.27572532,.00028151,43.0033,243.3429,293.1892,66.8663,0,U,59337,999,12781,-.21906717E-4,-.865E-5,0
STARLINK-31550,2024-057U,2026-07-05T04:20:06.576288,15.27573296,.00021892,43.0013,243.9033,265.9964,94.0638,0,U,59338,999,12780,-.72959811E-4,-.2269E-4,0
STARLINK-31473,2024-057V,2026-07-05T05:00:37.260576,15.27558076,.00003263,43.0000,243.2536,320.0341,40.0487,0,U,59339,999,12781,.14956771E-3,.3854E-4,0
STARLINK-31562,2024-057W,2026-07-05T05:44:17.889216,15.27576445,.00015651,43.0014,258.2015,272.2737,87.7935,0,U,59340,999,12764,-.13806095E-4,-.642E-5,0
STARLINK-31600,2024-057X,2026-07-05T12:57:40.661280,15.27529408,.00012119,43.0024,249.2255,290.5107,69.5615,0,U,59341,999,12777,-.23757378E-3,-.6783E-4,0
STARLINK-31628,2024-057Y,2026-07-05T03:56:03.143328,15.27586050,.00010011,43.0003,243.7788,273.0667,87.0070,0,U,59342,999,12780,.64948477E-4,.1526E-4,0
YUNHAI-3 02,2024-058A,2026-07-05T14:17:38.006592,14.13327743,.00009998,98.8197,194.1909,45.3003,314.8251,0,U,59343,999,11734,.24361481E-4,.2E-7,0
EUTELSAT 36D,2024-059A,2026-07-05T07:10:06.216384,1.00270961,.00002722,0.0212,47.6004,130.2996,248.7704,0,U,59346,999,832,0,0,0
STARLINK-31605,2024-060A,2026-07-05T08:51:27.634176,15.27585080,.00015481,43.0043,304.6030,241.9962,118.0734,0,U,59348,999,12812,.17529475E-3,.4565E-4,0
STARLINK-31532,2024-060B,2026-07-05T09:22:41.200896,15.27585447,.00027622,42.9968,315.1470,293.7821,66.2741,0,U,59349,999,12811,.50893986E-4,.1138E-4,0
STARLINK-31593,2024-060C,2026-07-05T10:14:18.661632,15.27570056,.00021265,43.0024,314.5595,291.8779,68.1846,0,U,59350,999,12807,-.9324877E-4,-.2827E-4,0
STARLINK-31555,2024-060D,2026-07-05T09:33:48.497472,15.27565482,.00018947,42.9979,315.1993,165.9625,194.1279,0,U,59351,999,12811,-.81735086E-4,-.251E-4,0
STARLINK-31561,2024-060E,2026-07-05T08:36:27.018720,15.27576632,.00012116,43.0037,314.9082,281.2097,78.8619,0,U,59352,999,12806,-.52765943E-4,-.1714E-4,0
STARLINK-31413,2024-060F,2026-07-05T10:30:57.634848,15.27574243,.00015994,43.0022,314.6479,256.3114,103.7560,0,U,59353,999,12807,-.26754657E-4,-.998E-5,0
STARLINK-31422,2024-060G,2026-07-05T10:05:15.583200,15.27598194,.00014066,43.0017,315.3684,240.3886,119.6826,0,U,59354,999,12806,.40697981E-3,.1096E-3,0
STARLINK-31416,2024-060H,2026-07-05T09:28:14.660832,15.27581214,.00023875,43.0014,315.1761,289.7832,70.2762,0,U,59355,999,12806,-.12585098E-4,-.609E-5,0
STARLINK-31552,2024-060J,2026-07-05T09:59:43.689696,15.27536056,.0001475,43.0044,315.3595,279.7910,80.2775,0,U,59356,999,12806,-.62273782E-4,-.1973E-4,0
STARLINK-31557,2024-060K,2026-07-05T09:50:55.688064,15.27544176,.00025463,43.0027,310.9385,284.4431,75.6138,0,U,59357,999,12811,-.58860922E-3,-.16408E-3,0
STARLINK-31559,2024-060L,2026-07-05T09:07:53.888448,15.27575332,.00002991,42.9976,315.0730,288.6289,71.4530,0,U,59358,999,12806,.44018282E-4,.95E-5,0
STARLINK-31501,2024-060M,2026-07-05T09:48:35.974944,15.27580988,.00020646,43.0026,315.2864,273.5839,86.4777,0,U,59359,999,12806,.1274461E-5,-.227E-5,0
STARLINK-31549,2024-060N,2026-07-05T08:51:15.196032,15.27571772,.00011164,43.0014,314.9870,264.6608,95.4116,0,U,59360,999,12806,-.42531726E-4,-.1432E-4,0
STARLINK-31560,2024-060P,2026-07-05T09:39:20.910240,15.27577044,.00008593,42.9965,315.2304,155.0410,205.0483,0,U,59361,999,12806,.11402611E-3,.2877E-4,0
STARLINK-31571,2024-060Q,2026-07-05T08:08:54.276576,15.27584199,.00014472,43.0037,315.6213,258.3965,101.6724,0,U,59362,999,12805,-.11289697E-3,-.3368E-4,0
STARLINK-31553,2024-060R,2026-07-05T07:53:37.315104,15.27582275,.00015359,43.0042,308.6109,273.3112,86.7564,0,U,59363,999,12813,.48129633E-4,.1062E-4,0
STARLINK-31547,2024-060S,2026-07-05T07:35:37.134528,15.27578186,.00018754,43.0058,304.2016,274.5032,85.5605,0,U,59364,999,12818,-.10744782E-3,-.3218E-4,0
STARLINK-31537,2024-060T,2026-07-05T08:19:59.152224,15.27587043,.00013291,43.0040,315.6800,265.5954,94.4746,0,U,59365,999,12805,.61995605E-4,.1445E-4,0
STARLINK-31451,2024-060U,2026-07-05T10:19:51.626496,15.27571379,.00018005,43.0025,314.5870,250.3560,109.7098,0,U,59366,999,12807,-.57163104E-4,-.1835E-4,0
STARLINK-31428,2024-060V,2026-07-05T09:02:24.933408,15.27523702,.00016531,42.9984,315.0449,331.9628,28.1135,0,U,59367,999,12806,-.60433888E-4,-.1922E-4,0
STARLINK-31419,2024-060W,2026-07-04T17:29:58.750080,15.27610261,.00012799,43.0007,318.7805,268.7832,91.2873,0,U,59368,999,12796,.20198472E-3,.5305E-4,0
STARLINK-31583,2024-060X,2026-07-05T08:16:18.632640,15.27591911,.00029852,43.0006,304.4169,281.2024,78.8492,0,U,59369,999,12818,.70773935E-4,.1686E-4,0
STARLINK-31461,2024-060Y,2026-07-05T08:32:59.810784,15.27560367,.00022682,43.0042,304.5026,278.9863,81.0731,0,U,59370,999,12812,-.90889934E-4,-.2761E-4,0
RESURS-P 4,2024-061A,2026-07-05T14:45:28.638720,15.32240301,.00031685,97.2758,134.1940,103.7336,256.4259,0,U,59371,999,12658,.11390981E-3,.3469E-4,0
STARLINK-31641,2024-062A,2026-07-04T23:05:31.623648,15.34460196,.00008889,53.1580,71.8566,88.1130,271.9974,0,U,59374,999,12760,.88329095E-3,.29642E-3,0
STARLINK-31430,2024-062B,2026-07-05T00:03:08.148960,15.34361705,.00014899,53.1595,72.1080,85.1462,274.9710,0,U,59375,999,12761,-.16696149E-3,-.6006E-4,0
STARLINK-31695,2024-062C,2026-07-04T23:56:15.360864,15.34375274,.00011878,53.1597,69.9453,118.9946,241.1176,0,U,59376,999,12760,-.72483799E-4,-.2822E-4,0
STARLINK-31716,2024-062D,2026-07-05T13:33:27.442944,15.30181010,.00005593,53.1612,19.4960,74.1248,285.9814,0,U,59377,999,12835,-.95192253E-4,-.3175E-4,0
STARLINK-31710,2024-062E,2026-07-04T09:30:52.244928,15.34396610,.0001165,53.1594,72.5919,84.3388,275.7748,0,U,59378,999,12751,.12224E-3,.3756E-4,0
STARLINK-31698,2024-062F,2026-07-05T02:24:26.345088,15.34411668,.00011145,53.1588,69.1737,78.0129,282.0998,0,U,59379,999,12762,.99241305E-4,.2979E-4,0
STARLINK-31680,2024-062G,2026-07-05T02:22:13.744416,15.34434466,.00010421,53.1570,71.2827,83.2354,276.8767,0,U,59380,999,12759,.60779559E-3,.20237E-3,0
STARLINK-31713,2024-062H,2026-07-04T23:02:30.009120,15.34434477,.00011568,53.1596,71.8440,109.3863,250.7265,0,U,59381,999,12757,.48392676E-3,.16027E-3,0
STARLINK-31705,2024-062J,2026-07-05T01:17:53.994624,15.34413467,.00015029,53.1606,69.5823,73.0837,287.0331,0,U,59382,999,12761,-.11401961E-3,-.4228E-4,0
STARLINK-31715,2024-062L,2026-07-04T22:40:36.557184,15.34396781,.00009722,53.1618,70.3254,67.2170,292.8935,0,U,59384,999,12763,.54464676E-4,.1464E-4,0
STARLINK-31717,2024-062M,2026-07-05T01:05:47.369760,15.34426412,.0001311,53.1613,69.5260,72.4522,287.6624,0,U,59385,999,12764,.33085837E-3,.10828E-3,0
STARLINK-31688,2024-062N,2026-07-05T07:00:34.633728,15.34350400,.00015274,53.1583,70.3581,75.3327,284.7844,0,U,59386,999,12762,-.39506586E-3,-.13679E-3,0
STARLINK-31714,2024-062P,2026-07-05T02:30:30.055392,15.34396369,.00014837,53.1586,69.1865,79.1339,280.9830,0,U,59387,999,12761,-.29617809E-3,-.10369E-3,0
STARLINK-31643,2024-062Q,2026-07-04T21:52:06.608640,15.34421344,.00010729,53.1612,70.1134,77.3489,282.7633,0,U,59388,999,12763,.2631547E-3,.8531E-4,0
STARLINK-31647,2024-062R,2026-07-04T22:58:46.963200,15.34454058,.00019256,53.1582,70.4373,112.7547,247.3659,0,U,59389,999,12763,.73352584E-3,.24531E-3,0
STARLINK-31649,2024-062S,2026-07-05T01:20:55.667040,15.34406803,.0001327,53.1599,69.5979,88.4156,271.6998,0,U,59390,999,12765,.18273849E-3,.5804E-4,0
STARLINK-31644,2024-062T,2026-07-05T00:00:08.339328,15.34327037,.00016142,53.1600,72.0932,66.1710,293.9461,0,U,59391,999,12761,-.30513772E-3,-.10648E-3,0
STARLINK-31626,2024-062U,2026-07-04T22:49:41.986560,15.34445645,.00011898,53.1602,70.3617,94.8049,265.3090,0,U,59392,999,12763,.66585252E-3,.2222E-3,0
STARLINK-31443,2024-062V,2026-07-05T01:04:58.386144,15.34386526,.00011069,53.1608,55.8553,64.2133,295.8984,0,U,59393,999,12784,.10030128E-3,.3013E-4,0
STARLINK-31607,2024-062W,2026-07-04T22:31:31.239264,15.34458521,.00015985,53.1600,70.2827,78.9968,281.1214,0,U,59394,999,12762,.88124019E-3,.29571E-3,0
YAOGAN-42 01,2024-063A,2026-07-05T15:30:16.187616,15.23176123,.00025332,34.9996,9.7458,135.1649,224.9271,0,U,59395,999,12566,.39243193E-3,.9479E-4,0
